NORAD_CAT_ID,OBJECT_NAME,OBJECT_TYPE,EPOCH,MEAN_MOTION,ECCENTRICITY,INCLINATION,RA_OF_ASC_NODE,ARG_OF_PERICENTER,MEAN_ANOMALY,BSTAR,MEAN_MOTION_DOT,MEAN_MOTION_DDOT,TLE_LINE0,TLE_LINE1,TLE_LINE2,SEMIMAJOR_AXIS,PERIOD,APOGEE,PERIGEE,DECAYED
53796.0,STARLINK-4721,PAYLOAD,2023-10-26 02:09:22,15.08836867,0.000135,53.2163,179.6155,90.8294,269.2853,-6.9284e-06,-3.98e-06,0.0,0 STARLINK-4721,1 53796U 22111Z   23299.08984876 -.00000398  00000-0 -69284-5 0  9998,2 53796  53.2163 179.6155 0001350  90.8294 269.2853 15.08836867 63328,6917.89,95.438,540.689,538.821,0.0
53796.0,STARLINK-4721,PAYLOAD,2023-10-26 21:14:00,15.08838294,0.0001315,53.2161,176.0473,90.496,269.6183,-1.8425e-06,-3.17e-06,0.0,0 STARLINK-4721,1 53796U 22111Z   23299.88472818 -.00000317  00000-0 -18425-5 0  9996,2 53796  53.2161 176.0473 0001315  90.4960 269.6183 15.08838294 63446,6917.886,95.438,540.66,538.841,0.0
53796.0,STARLINK-4721,PAYLOAD,2023-10-26 22:49:23,15.08838776,0.0001314,53.2161,175.7498,90.6,269.5143,2.5004e-06,-2.48e-06,0.0,0 STARLINK-4721,1 53796U 22111Z   23299.95096773 -.00000248  00000-0  25004-5 0  9999,2 53796  53.2161 175.7498 0001314  90.6000 269.5143 15.08838776 62703,6917.884,95.438,540.658,538.84,0.0
53796.0,STARLINK-4721,PAYLOAD,2023-10-27 22:40:10,15.08836176,0.000132,53.216,171.289,88.0689,272.0454,2.1486e-05,5.4e-07,0.0,0 STARLINK-4721,1 53796U 22111Z   23300.94457148  .00000054  00000-0  21486-4 0  9991,2 53796  53.2160 171.2890 0001320  88.0689 272.0454 15.08836176 63606,6917.892,95.438,540.67,538.844,0.0
53796.0,STARLINK-4721,PAYLOAD,2023-10-28 08:12:30,15.08829731,0.0001244,53.2156,169.505,87.0488,273.0646,-3.9561e-05,-9.17e-06,0.0,0 STARLINK-4721,1 53796U 22111Z   23301.34201931 -.00000917  00000-0 -39561-4 0  9996,2 53796  53.2156 169.5050 0001244  87.0488 273.0646 15.08829731 62916,6917.912,95.438,540.637,538.916,0.0
53796.0,STARLINK-4721,PAYLOAD,2023-10-28 20:55:34,15.08841911,0.0001461,53.2165,167.1276,91.4278,268.6881,6.0918e-05,6.82e-06,0.0,0 STARLINK-4721,1 53796U 22111Z   23301.87192987  .00000682  00000-0  60918-4 0  9991,2 53796  53.2165 167.1276 0001461  91.4278 268.6881 15.08841911 62990,6917.875,95.437,540.75,538.729,0.0
53796.0,STARLINK-4721,PAYLOAD,2023-10-28 22:30:57,15.08843592,0.0001427,53.2165,166.8303,89.429,270.6866,7.4549e-05,8.99e-06,0.0,0 STARLINK-4721,1 53796U 22111Z   23301.93816830  .00000899  00000-0  74549-4 0  9993,2 53796  53.2165 166.8303 0001427  89.4290 270.6866 15.08843592 63758,6917.869,95.437,540.722,538.747,0.0
53796.0,STARLINK-4721,PAYLOAD,2023-10-29 08:03:16,15.08839861,0.0001251,53.2157,165.0425,82.2847,277.8287,6.7174e-05,7.81e-06,0.0,0 STARLINK-4721,1 53796U 22111Z   23302.33560979  .00000781  00000-0  67174-4 0  9994,2 53796  53.2157 165.0425 0001251  82.2847 277.8287 15.08839861 63816,6917.881,95.438,540.611,538.88,0.0
53796.0,STARLINK-4721,PAYLOAD,2023-10-29 20:46:22,15.08832379,0.0001371,53.2154,162.6659,86.8834,273.2315,-2.5993e-05,-7.01e-06,0.0,0 STARLINK-4721,1 53796U 22111Z   23302.86553973 -.00000701  00000-0 -25993-4 0  9995,2 53796  53.2154 162.6659 0001371  86.8834 273.2315 15.08832379 63149,6917.904,95.438,540.717,538.82,0.0
53796.0,STARLINK-4721,PAYLOAD,2023-10-29 22:21:45,15.08832082,0.0001324,53.2154,162.368,84.4591,275.6552,-3.0693e-05,-7.76e-06,0.0,0 STARLINK-4721,1 53796U 22111Z   23302.93178027 -.00000776  00000-0 -30693-4 0  9991,2 53796  53.2154 162.3680 0001324  84.4591 275.6552 15.08832082 63906,6917.905,95.438,540.686,538.854,0.0
53796.0,STARLINK-4721,PAYLOAD,2023-10-30 19:01:45,15.08885645,0.000153,53.2156,158.5023,76.0879,284.0283,-0.00056171,-9.228e-05,0.0,0 STARLINK-4721,1 53796U 22111Z   23303.79288277 -.00009228  00000-0 -56171-3 0  9994,2 53796  53.2156 158.5023 0001530  76.0879 284.0283 15.08885645 63280,6917.741,95.435,540.664,538.547,0.0
53796.0,STARLINK-4721,PAYLOAD,2023-10-30 22:12:32,15.08845706,0.0001376,53.216,157.9073,87.4368,272.6781,-2.4515e-05,-6.78e-06,0.0,0 STARLINK-4721,1 53796U 22111Z   23303.92537262 -.00000678  00000-0 -24515-4 0  9998,2 53796  53.2160 157.9073 0001376  87.4368 272.6781 15.08845706 64056,6917.863,95.437,540.68,538.776,0.0
53796.0,STARLINK-4721,PAYLOAD,2023-10-31 07:44:50,15.08843869,0.0001374,53.2162,156.1231,87.4961,272.6188,-7.8942e-08,-2.89e-06,0.0,0 STARLINK-4721,1 53796U 22111Z   23304.32281147 -.00000289  00000-0 -78942-7 0  9995,2 53796  53.2162 156.1231 0001374  87.4961 272.6188 15.08843869 64118,6917.869,95.437,540.684,538.783,0.0
53796.0,STARLINK-4721,PAYLOAD,2023-10-31 20:27:56,15.08834731,0.0001392,53.2169,153.7453,84.3545,275.7606,2.5017e-05,1.1e-06,0.0,0 STARLINK-4721,1 53796U 22111Z   23304.85273679  .00000110  00000-0  25017-4 0  9997,2 53796  53.2169 153.7453 0001392  84.3545 275.7606 15.08834731 63440,6917.896,95.438,540.724,538.799,0.0
53796.0,STARLINK-4721,PAYLOAD,2023-11-01 07:35:38,15.08839665,0.0001408,53.2168,151.6641,83.5325,276.5828,3.7201e-05,3.04e-06,0.0,0 STARLINK-4721,1 53796U 22111Z   23305.31641383  .00000304  00000-0  37201-4 0  9993,2 53796  53.2168 151.6641 0001408  83.5325 276.5828 15.08839665 64267,6917.881,95.438,540.72,538.772,0.0
53796.0,STARLINK-4721,PAYLOAD,2023-11-01 20:18:43,15.08837839,0.0001462,53.2189,149.2836,107.9631,252.1521,1.7903e-06,-2.59e-06,0.0,0 STARLINK-4721,1 53796U 22111Z   23305.84633492 -.00000259  00000-0  17903-5 0  9991,2 53796  53.2189 149.2836 0001462 107.9631 252.1521 15.08837839 64340,6917.887,95.438,540.763,538.741,0.0
53796.0,STARLINK-4721,PAYLOAD,2023-11-02 13:48:00,15.08816365,0.000135,53.2172,146.0141,83.5365,276.5781,-0.00014666,-2.62e-05,0.0,0 STARLINK-4721,1 53796U 22111Z   23306.57500167 -.00002620  00000-0 -14666-3 0  9990,2 53796  53.2172 146.0141 0001350  83.5365 276.5781 15.08816365 64456,6917.953,95.439,540.752,538.884,0.0
53796.0,STARLINK-4721,PAYLOAD,2023-11-02 20:09:32,15.08822286,0.0001314,53.2166,144.8239,86.2533,273.8609,-5.9172e-05,-1.229e-05,0.0,0 STARLINK-4721,1 53796U 22111Z   23306.83995791 -.00001229  00000-0 -59172-4 0  9996,2 53796  53.2166 144.8239 0001314  86.2533 273.8609 15.08822286 63749,6917.935,95.439,540.709,538.891,0.0
53796.0,STARLINK-4721,PAYLOAD,2023-11-03 04:06:27,15.08835464,0.000124,53.2169,143.3368,81.0677,279.0455,5.6072e-05,6.05e-06,0.0,0 STARLINK-4721,1 53796U 22111Z   23307.17114905  .00000605  00000-0  56072-4 0  9995,2 53796  53.2169 143.3368 0001240  81.0677 279.0455 15.08835464 63793,6917.894,95.438,540.617,538.901,0.0
53796.0,STARLINK-4721,PAYLOAD,2023-11-03 13:38:45,15.08840916,0.0001299,53.2165,141.5514,95.296,264.8181,4.9665e-05,5.03e-06,0.0,0 STARLINK-4721,1 53796U 22111Z   23307.56858668  .00000503  00000-0  49665-4 0  9996,2 53796  53.2165 141.5514 0001299  95.2960 264.8181 15.08840916 64605,6917.878,95.437,540.641,538.844,0.0
53796.0,STARLINK-4721,PAYLOAD,2023-11-03 20:00:18,15.08845461,0.0001133,53.2165,140.3637,81.7625,278.3495,0.00011075,1.475e-05,0.0,0 STARLINK-4721,1 53796U 22111Z   23307.83354196  .00001475  00000-0  11075-3 0  9995,2 53796  53.2165 140.3637 0001133  81.7625 278.3495 15.08845461 63891,6917.864,95.437,540.512,538.945,0.0
53796.0,STARLINK-4721,PAYLOAD,2023-11-04 05:32:36,15.08849699,0.000112,53.2164,138.5793,79.9898,280.122,0.0001599,2.259e-05,0.0,0 STARLINK-4721,1 53796U 22111Z   23308.23097650  .00002259  00000-0  15990-3 0  9990,2 53796  53.2164 138.5793 0001120  79.9898 280.1220 15.08849699 64704,6917.851,95.437,540.491,538.941,0.0
53796.0,STARLINK-4721,PAYLOAD,2023-11-04 19:51:04,15.08841994,0.0001132,53.2166,135.9026,75.7538,284.3579,0.00017533,2.504e-05,0.0,0 STARLINK-4721,1 53796U 22111Z   23308.82714079  .00002504  00000-0  17533-3 0  9994,2 53796  53.2166 135.9026 0001132  75.7538 284.3579 15.08841994 64796,6917.874,95.437,540.522,538.956,0.0
53796.0,STARLINK-4721,PAYLOAD,2023-11-04 23:01:51,15.08839039,0.0001116,53.2165,135.3084,73.929,286.1825,0.00014299,1.989e-05,0.0,0 STARLINK-4721,1 53796U 22111Z   23308.95962338  .00001989  00000-0  14299-3 0  9993,2 53796  53.2165 135.3084 0001116  73.9290 286.1825 15.08839039 64061,6917.883,95.438,540.52,538.976,0.0
53796.0,STARLINK-4721,PAYLOAD,2023-11-05 05:23:24,15.08838223,0.0001104,53.2165,134.1188,78.0015,282.11,6.2382e-05,7.05e-06,0.0,0 STARLINK-4721,1 53796U 22111Z   23309.22458629  .00000705  00000-0  62382-4 0  9999,2 53796  53.2165 134.1188 0001104  78.0015 282.1100 15.08838223 64854,6917.886,95.438,540.515,538.987,0.0
53796.0,STARLINK-4721,PAYLOAD,2023-11-05 19:41:52,15.08839972,0.0001138,53.2165,131.443,84.6522,275.46,-0.00010217,-1.913e-05,0.0,0 STARLINK-4721,1 53796U 22111Z   23309.82074956 -.00001913  00000-0 -10217-3 0  9995,2 53796  53.2165 131.4430 0001138  84.6522 275.4600 15.08839972 64196,6917.88,95.438,540.533,538.958,0.0
53796.0,STARLINK-4721,PAYLOAD,2023-11-06 11:35:42,15.08852118,0.0001148,53.2166,128.468,81.9529,278.1593,-4.7285e-05,-1.041e-05,0.0,0 STARLINK-4721,1 53796U 22111Z   23310.48313648 -.00001041  00000-0 -47285-4 0  9991,2 53796  53.2166 128.4680 0001148  81.9529 278.1593 15.08852118 64297,6917.843,95.437,540.503,538.914,0.0
53796.0,STARLINK-4721,PAYLOAD,2023-11-06 19:32:39,15.08832617,0.000116,53.2158,126.9825,89.1278,270.9847,-6.346e-05,-1.297e-05,0.0,0 STARLINK-4721,1 53796U 22111Z   23310.81434724 -.00001297  00000-0 -63460-4 0  9993,2 53796  53.2158 126.9825 0001160  89.1278 270.9847 15.08832617 64347,6917.903,95.438,540.57,538.965,0.0
53796.0,STARLINK-4721,PAYLOAD,2023-11-07 11:26:30,15.08836656,0.0001188,53.2164,124.0076,96.2277,263.8851,-1.5974e-05,-5.42e-06,0.0,0 STARLINK-4721,1 53796U 22111Z   23311.47674426 -.00000542  00000-0 -15974-4 0  9990,2 53796  53.2164 124.0076 0001188  96.2277 263.8851 15.08836656 65196,6917.891,95.438,540.577,538.934,0.0
53796.0,STARLINK-4721,PAYLOAD,2023-11-07 19:23:25,15.08839166,0.0001319,53.2161,122.522,75.7207,284.3931,0.00010163,1.33e-05,0.0,0 STARLINK-4721,1 53796U 22111Z   23311.80793971  .00001330  00000-0  10163-3 0  9992,2 53796  53.2161 122.5220 0001319  75.7207 284.3931 15.08839166 64496,6917.883,95.438,540.66,538.835,0.0
